ARIRANG-3 (KOMPSAT-3)   
1 38338U 12025B   20121.85004866  .00000051  00000-0  19510-4 0  9994
2 38338  98.1476  60.8195 0008628 295.9207  64.1116 14.61855706424371
KANOPUS-V 1             
1 38707U 12039A   20121.87944016  .00000232  00000-0  14255-4 0  9993
2 38707  97.4599  41.3788 0001548  80.7357  38.9154 15.19156179431282
EXACTVIEW-1 (ADS-1B)    
1 38709U 12039C   20121.97237127 -.00000034  00000-0  57866-5 0  9991
2 38709  99.1127 153.4645 0011500 125.5423 234.6812 14.24016235404096
SPOT 6                  
1 38755U 12047A   20121.38575943 -.00000007  00000-0  82926-5 0  9992
2 38755  98.1688 189.0047 0001273  96.9866 263.1482 14.58572048406736
PLEIADES 1B             
1 39019U 12068A   20121.88407234 -.00000014  00000-0  69167-5 0  9991
2 39019  98.1996 197.0364 0001295  86.7645 273.3698 14.58555527394583
GOKTURK 2               
1 39030U 12073A   20121.88695504  .00000041  00000-0  14145-4 0  9993
2 39030  97.9560  10.5787 0001107   7.3945 352.7282 14.72747749394904
LANDSAT 8               
1 39084U 13008A   20121.87899988  .00000042  00000-0  19388-4 0  9997
2 39084  98.1842 192.2004 0001427  78.1665 281.9682 14.57122193383772
SARAL                   
1 39086U 13009A   20121.24570713 -.00000004  00000-0  14805-4 0  9991
2 39086  98.5439 307.5507 0001900  67.7787 292.3598 14.32024815375109
GAOFEN 1                
1 39150U 13018A   20121.88599996  .00000048  00000-0  14172-4 0  9991
2 39150  97.8690 199.9058 0017648 272.9245  86.9925 14.76551327377992
VNREDSAT 1              
1 39160U 13021B   20121.84679536  .00000042  00000-0  17394-4 0  9994
2 39160  98.1483 198.9890 0001604  82.3557 277.7821 14.62926484372922
ARIRANG-5 (KOMPSAT-5)   
1 39227U 13042A   20121.31009762 -.00000070  00000-0 -68412-6 0  9993
2 39227  97.6237 306.1072 0002158  86.3340  16.8593 15.04511867367284
YAOGAN 18               
1 39363U 13059A   20121.90286174  .00001106  00000-0  39933-4 0  9994
2 39363  97.2529 172.4626 0005540 223.6876 255.6368 15.30548685360443
SKYSAT-1                
1 39418U 13066C   20121.21425448  .00000044  00000-0  85226-5 0  9993
2 39418  97.6228 201.7775 0021229   3.7025 356.4352 14.98943365352058
DUBAISAT-2              
1 39419U 13066D   20121.83711149  .00000122  00000-0  16504-4 0  9997
2 39419  97.5456 177.7758 0013897  13.0689 347.0895 14.94107871351064
GPM-CORE                
1 39574U 14009C   20121.12713103  .00006276  00000-0  93764-4 0  9990
2 39574  65.0072 315.9918 0011136 284.3141  75.6769 15.55954830350521
SENTINEL-1A             
1 39634U 14016A   20121.92177159 -.00000080  00000-0 -72849-5 0  9999
2 39634  98.1823 129.5726 0001322  83.1652 276.9704 14.59197226323631
KAZEOSAT 1              
1 39731U 14024A   20121.85521299  .00000001  00000-0  13212-4 0  9995
2 39731  98.3187 196.1081 0001471  92.5430 267.5923 14.42058038316024
ALOS-2                  
1 39766U 14029A   20121.89760783  .00000127  00000-0  23948-4 0  9991
2 39766  97.9196 219.1747 0001580  90.2497 269.8899 14.79472322320669
KAZEOSAT 2              
1 40010U 14033A   20121.95394516  .00000053  00000-0  13236-4 0  9991
2 40010  97.8103  19.0059 0017559  97.3455 262.9764 14.82108726317285
HODOYOSHI-4             
1 40011U 14033B   20121.90655141  .00000127  00000-0  22831-4 0  9994
2 40011  97.7817  11.4837 0028136  96.0445 264.3970 14.81185714316987
DEIMOS-2                
1 40013U 14033D   20121.91585546  .00000164  00000-0  25580-4 0  9993
2 40013  97.8208  25.3402 0002100 105.5216 254.6247 14.84648125317816
HODOYOSHI-3             
1 40015U 14033F   20121.14184359  .00000064  00000-0  15475-4 0  9998
2 40015  97.7446 358.4265 0038326 115.7454 244.7721 14.78589156316293
SPOT 7                  
1 40053U 14034A   20121.28322592 -.00000005  00000-0  88149-5 0  9994
2 40053  98.1849 189.0633 0001342 105.5752 254.5598 14.58563558310651
SKYSAT-2                
1 40072U 14037D   20121.20398906  .00000118  00000-0  22730-4 0  9999
2 40072  98.4587 296.8258 0005230 294.6130  65.4535 14.81274430314023
WORLDVIEW-3 (WV-3)      
1 40115U 14048A   20121.85911715  .00000053  00000-0  12358-4 0  9992
2 40115  97.7791 198.8684 0002276  97.5715 262.5774 14.85114517309730
GAOFEN 2                
1 40118U 14049A   20121.88135303  .00000066  00000-0  15271-4 0  9991
2 40118  97.8402 200.2193 0007114 335.5940  24.4921 14.80660750308038
YAOGAN 21               
1 40143U 14053A   20121.90975944  .00000795  00000-0  36126-4 0  9991
2 40143  97.4418 189.0347 0017903  78.4126 334.3444 15.23566041314160
YAOGAN 22               
1 40275U 14063A   20121.96248603 -.00000045  00000-0  00000+0 0  9995
2 40275 100.4899 236.2250 0006173 204.0436 156.0392 13.15421314265528
ASNARO                  
1 40298U 14070A   20121.88296422  .00001006  00000-0  50376-4 0  9994
2 40298  97.4171 204.8562 0002246  96.7141  37.4611 15.19632488304111
HODOYOSHI-1             
1 40299U 14070B   20121.85902376  .00000624  00000-0  28585-4 0  9996
2 40299  97.3225 199.6975 0013195  11.6422  95.6551 15.24025259304569
QSAT-EOS                
1 40301U 14070D   20121.88088953  .00001733  00000-0  67933-4 0  9991
2 40301  97.2937 197.4068 0025120   1.0030 109.5968 15.26831613304670
YAOGAN 23               
1 40305U 14071A   20121.35580237  .00000791  00000-0  42126-4 0  9990
2 40305  97.5221  61.1569 0001092  40.2968  74.0019 15.18115963302432
YAOGAN 24               
1 40310U 14072A   20121.33857096  .00000062  00000-0  16214-4 0  9995
2 40310  97.8907 244.4731 0015934 283.2998  76.6440 14.76288118293432
CBERS 4                 
1 40336U 14079A   20121.91816502 -.00000023  00000-0  72213-5 0  9991
2 40336  98.5635 193.9302 0000744 115.3199 244.8052 14.35410913282867
RESURS P2               
1 40360U 14087A   20121.34707059  .00000647  00000-0  22309-4 0  9991
2 40360  97.2432 211.0843 0009401   9.0992  31.1068 15.33500544298945
YAOGAN 26               
1 40362U 14088A   20121.34502381  .00000793  00000-0  35939-4 0  9990
2 40362  97.2494 190.9236 0008012 316.1371 113.8248 15.23621667297548
SMAP                    
1 40376U 15003A   20121.93475944  .00000026  00000-0  14177-4 0  9992
2 40376  98.1239 129.1662 0001959  99.6761 260.4666 14.63381882280276
KOMPSAT-3A              
1 40536U 15014A   20121.83904409  .00000600  00000-0  38419-4 0  9997
2 40536  97.5392  61.9250 0000766  80.4139 355.5553 15.12257912281526
SENTINEL-2A             
1 40697U 15028A   20121.64111474  .00000004  00000-0  18148-4 0  9996
2 40697  98.5706 196.5527 0001237  92.8392 267.2936 14.30814523253628
GAOFEN 8                
1 40701U 15030A   20121.37972126  .00000970  00000-0  43560-4 0  9992
2 40701  97.4651 244.0988 0009577 324.4797  71.3233 15.23561246269927
CARBONITE 1 (CBNT-1)    
1 40718U 15032D   20120.23191950 -.00000057  00000-0 -11799-5 0  9992
2 40718  97.8445   2.7162 0017582  14.4255 138.5361 14.74799467258551
YAOGAN 27               
1 40878U 15040A   20121.63611112 -.00000043  00000-0  11993-5 0  9990
2 40878 100.2372 171.5028 0007849 337.4811  22.5960 13.15964796224725
GAOFEN 9                
1 40894U 15047A   20121.91995336  .00000029  00000-0  11475-4 0  9996
2 40894  97.8889 202.2982 0032809 199.3847 160.6118 14.76297659249468
LAPAN-A2                
1 40931U 15052B   20120.02039352 -.00000221  00000-0 -12022-3 0  9996
2 40931   5.9971 327.9084 0013935 297.0073 299.9149 14.76631531247937
YAOGAN 28               
1 41026U 15064A   20121.87096688  .00000747  00000-0  34263-4 0  9997
2 41026  97.4468 253.9798 0000695 201.2774 313.1997 15.23518373249847
YAOGAN 29               
1 41038U 15069A   20121.92426242  .00000002  00000-0  71354-5 0  9991
2 41038  98.0083 109.9821 0002144  68.8885 291.2570 14.80444637239247
KENT RIDGE 1            
1 41167U 15077B   20121.34298995  .00000840  00000-0  11158-4 0  9996
2 41167  14.9805 114.3921 0011498  63.4964 335.3374 15.09143556241503
TELEOS 1                
1 41169U 15077D   20121.28922272  .00001170  00000-0  29705-4 0  9997
2 41169  14.9792 100.1410 0010179  86.8258  38.8181 15.10518864241620
GAOFEN 4                
1 41194U 15083A   20121.40945976 -.00000337  00000-0  00000+0 0  9999
2 41194   0.0766  85.8635 0005226  79.1404 306.9527  1.00271498 16040
JASON-3                 
1 41240U 16002A   20121.17975037 -.00000053  00000-0  34422-4 0  9993
2 41240  66.0388 105.4121 0008441 271.7673  88.2375 12.80929658200373
SENTINEL-3A             
1 41335U 16011A   20121.88132418 -.00000018  00000-0  10675-4 0  9999
2 41335  98.6272 189.3221 0001039  89.1728 270.9572 14.26735741218896
SENTINEL-1B             
1 41456U 16025A   20121.88700260 -.00000089  00000-0 -92574-5 0  9992
2 41456  98.1823 129.3644 0001369  81.4934 278.6427 14.59197085213797
ZIYUAN 3-2 (ZY 3-2)     
1 41556U 16033A   20121.36265229  .00000620  00000-0  30710-4 0  9998
2 41556  97.3642 197.5013 0003696 155.7838 274.2946 15.21371747217609
NUSAT-1 (FRESCO)        
1 41557U 16033B   20121.90012853  .00001212  00000-0  47145-4 0  9990
2 41557  97.4020 212.4397 0011939 254.1105 105.8819 15.27922505218512
NUSAT-2 (BATATA)        
1 41558U 16033C   20121.86162951  .00001361  00000-0  49608-4 0  9992
2 41558  97.4070 214.5277 0011001 251.3881 108.6165 15.29895714218617
CARTOSAT-2C             
1 41599U 16040A   20121.93311343  .00000534  00000-0  28550-4 0  9998
2 41599  97.4527 182.0571 0014384  22.5351 320.9941 15.19248267213870
SKYSAT-C1               
1 41601U 16040C   20120.79371123  .00001201  00000-0  34565-4 0  9992
2 41601  97.2239 199.3242 0005411 348.9467  11.0851 15.37704501214239
LAPAN-A3                
1 41603U 16040E   20121.87498205  .00000244  00000-0  14496-4 0  9992
2 41603  97.3130 176.8959 0013952  16.2121  98.5845 15.19826470213915
BIROS                   
1 41604U 16040F   20121.25850587  .00000467  00000-0  23411-4 0  9994
2 41604  97.3190 180.0326 0012236   2.7097 357.4204 15.21993128214042
